GLOBALSTAR M057 [-]     
1 25943U 99058A   24095.47266212 -.00000060  00000+0  29592-3 0  9990
2 25943  51.9967 153.2261 0002724 182.9255 177.1579 12.24783159113171
GLOBALSTAR M059 [-]     
1 25944U 99058B   24095.38841613 -.00000108  00000+0 -26724-3 0  9993
2 25944  52.0029 314.2457 0000944 111.1243  61.0861 11.99961458521362
GLOBALSTAR M056 [-]     
1 25945U 99058C   24095.39762370  .00000008  00000+0  11134-2 0  9992
2 25945  51.9983 327.4507 0001608  45.2551 125.9871 12.04773161109732
GLOBALSTAR M031 [-]     
1 25946U 99058D   24095.64668549  .00000027  00000+0  11950-2 0  9991
2 25946  51.9952 245.3384 0001491  40.3910  42.3243 12.16005799111191
GLOBALSTAR M039 [-]     
1 25961U 99062A   24095.50017562 -.00000061  00000+0  23656-3 0  9997
2 25961  51.9833 164.8278 0003134 100.4105 259.7115 12.62286334124815
GLOBALSTAR M034 [-]     
1 25962U 99062B   24095.65529345 -.00000065  00000+0  25362-3 0  9991
2 25962  51.9871  71.2911 0013983 293.8110 237.6181 11.79426239 86642
GLOBALSTAR M029 [-]     
1 25963U 99062C   24095.58077374 -.00000089  00000+0 -41219-4 0  9991
2 25963  51.9794 202.1361 0002017 344.0427  29.2084 11.99875886116477
GLOBALSTAR M061 [-]     
1 25964U 99062D   24095.57706887 -.00000052  00000+0  46837-3 0  9998
2 25964  51.9782 249.7210 0005851 213.0005 225.0948 11.76759513 69544
